0 DELTA 1 DEB
1 27789U 65089F   13279.83091243  .00000956  00000-0  57209-2 0  4140
2 27789 059.3575 023.8398 0683747 150.5250 211.7542 12.08073178486631
0 DELTA 1 DEB
1 27789U 65089F   13281.73486491  .00000952  00000-0  57209-2 0  4152
2 27789 059.3798 019.4443 0681905 152.6919 211.1822 12.08056360486863
0 DELTA 1 DEB
1 27789U 65089F   13283.72117721  .00000951  00000-0  57209-2 0  4160
2 27789 059.3838 014.8728 0681636 154.1026 209.5665 12.08058054487106
0 DELTA 1 DEB
1 27789U 65089F   13285.70749244  .00000947  00000-0  57209-2 0  4188
2 27789 059.3813 010.3057 0679480 155.2625 208.1923 12.08060271487348
0 DELTA 1 DEB
1 27789U 65089F   13286.70066236  .00000945  00000-0  57209-2 0  4191
2 27789 059.3826 008.0233 0678654 155.8512 207.5503 12.08061121487460
0 DELTA 1 DEB
1 27789U 65089F   13287.77658830  .00000948  00000-0  57209-2 0  4201
2 27789 059.3897 005.5398 0680081 156.9455 206.4137 12.08061975487599
0 DELTA 1 DEB
1 27789U 65089F   13289.68011951  .00000944  00000-0  57209-2 0  4217
2 27789 059.3799 001.1966 0678087 157.7217 205.3201 12.08063757487827
0 DELTA 1 DEB
1 27789U 65089F   13289.76291687  .00000945  00000-0  57209-2 0  4224
2 27789 059.3890 000.9912 0678765 158.1899 205.0017 12.08062943487830
